#dP2024  1 26  6  0  0.00000000      96 __u+U IGS20 EXT  IAC
## 2298 453600.00000000   900.00000000 60335 0.2500000000000
+  118   C06C07C08C09C10C11C12C13C14C16C19C20C21C22C23C24C25
+        C26C27C28C29C30C32C33C34C35C36C37C38C39C40C41C42C43
+        C44C45C46E02E03E04E05E07E08E09E10E11E12E13E14E15E18
+        E19E21E24E25E26E27E30E31E33E34E36G02G03G04G05G06G07
+        G08G09G10G11G12G13G14G15G16G17G18G19G20G21G22G23G24
+        G25G26G28G29G30G31G32J02J03J04R01R02R03R04R05R07R08
+        R09R11R12R13R14R15R16R17R18R19R20R21R22R24R25R26  0
++         9 11 10 10 10  8  7 10  9  9  9  9  7  9  8  8  9
++         9  8  8 10  8 10  9  8 10  8  8 10 11 11  9  8  8
++         7  9  9  8  7  8  8  7  7  8 11  8  8  8  8  8  7
++         7  8  8  8  8  8  8  8  8  8  9  8  8  7  8  8  8
++         9  7  8  8  8  8  7  8  8  8  8  8  8  7  8  8  7
++         8  7  7  8  7  7  7 10  9 10 10  9 10  8  8  9 10
++         8  9  9  9  7  8  8  9  8  9  8  9  8  8  8 11  0
%c M  cc GPS ccc cccc cccc cccc cccc ccccc ccccc ccccc ccccc
%c cc cc ccc ccc cccc cccc cccc cccc ccccc ccccc ccccc ccccc
%f  0.0000000  0.000000000  0.00000000000  0.000000000000000
%f  0.0000000  0.000000000  0.00000000000  0.000000000000000
%i    0    0    0    0      0      0      0      0         0
%i    0    0    0    0      0      0      0      0         0
/* IAC                                ULTRA-RAPID PREDICTION
/* S/V CLOCKS ARE ALIGNED TO GNSS TIME                      
/* G:C1WC2W R:C1PC2P E:C1XC5X C:C2IC6I J:C1CC2S             
/* PCV:IGS20_2290 OL/AL:FES2004  NONE     YN ORB:CoN CLK:CoN
*  2024 01 26  6 15  0.00000000
PC06 -18481.521504  35168.836352  13716.937684     70.547498
PC07  -2611.366408  36445.900956  21281.427518   -698.073065
PC08  -8484.332758  19057.700238 -36647.589651     85.814136
PC09 -10594.249738  33802.380436  22814.174636   -403.337912
PC10   3291.217780  38974.070702  16751.104844    111.060356
PC11 -10292.770734 -13084.144004  22468.609903    377.400938
PC12   3617.491256 -25419.761361  10979.108904    786.193683
PC13    716.997727  21914.606149 -35835.356088    411.284303
PC14 -19120.007932 -19577.064707  -5305.120809     48.616980
PC16 -19137.174933  35077.281594  13153.483352   -302.752891
PC19  20867.371783  12398.674110  13814.226133   -933.493034
PC20  15346.535620  23212.881752  -2281.329040   -101.141848
PC21    103.852411 -20879.495941  18519.836924   -963.503720
PC22  14727.577419  -6141.292810  22895.573284   -133.634309
PC23 -25984.108223   7816.943111   6530.859567   -786.472122
PC24 -10069.838097 -14550.906653 -21606.859534    824.907332
PC25 -25742.607901  -3732.802070 -10151.287654    310.779428
PC26  10178.265411 -16226.613447 -20303.672130   -240.079508
PC27  -9490.868356  26102.782768  -2646.041115    262.073230
PC28 -17522.164922  17540.595417  12813.789837    199.015407
PC29  15856.480793   3280.601238 -22730.931855    233.188756
PC30   4431.964961  21554.815859 -17151.386646    -18.430794
PC32     16.707355  20852.093323 -18534.005448   -558.542800
PC33 -20938.255856 -12343.001873 -13693.030346   -944.785348
PC34  -5534.608002 -20550.502209  18052.570211    355.341226
PC35  16917.591689 -18149.207657 -12823.682050    448.568255
PC36  25350.920694   4725.894028  10662.088037    -38.535297
PC37 -11162.454209  15892.426076  20050.362886   -933.023695
PC38 -17459.784606  19045.670072 -33290.003584    132.801958
PC39 -22543.364879  35093.060491   5293.438875     -6.840723
PC40  -6697.825940  33173.619790  25308.420700    -53.714354
PC41 -15198.647928   5427.825872 -22709.409103   -883.090596
PC42 -14351.347533 -23600.390557   3924.324522   -461.214512
PC43 -15589.134244  -4390.840462  22716.703302     57.882520
PC44   8619.957931 -26449.826651   2418.074619    365.160973
PC45  25849.918709  -7919.396808  -6870.493807    -65.810632
PC46  11015.315654  14125.084862  21374.085331   -118.673514
PE02 -25542.306230 -14805.649507  -2307.773733     98.139064
PE03 -14979.826045 -15815.603575 -20041.863078    -89.515510
PE04  16269.717702  -6675.310956  23816.225342   -312.375514
PE05  -4978.080992 -28808.457533  -4638.778137   4713.926229
PE07  -8246.993375  24794.050262 -13908.758883   -100.378181
PE08 -16250.562953   5909.329716 -24026.185166   -213.856940
PE09   8230.699892 -24700.110921  14074.657133   -313.039547
PE10  24367.289842 -16784.941076    828.401861   -597.027787
PE11  18241.047931 -20544.991849  11035.965251   3273.437483
PE12  26267.363408 -10838.259045  -8326.956576   -878.950785
PE13 -18745.127168  20388.542927 -10419.315818    -20.004740
PE14  10292.333080 -20311.566300 -12551.452545     21.204716
PE15 -26221.127673  10468.085392   8886.642250    -82.245471
PE18  -1123.779183  31210.426803   1280.541086    253.694098
PE19  14001.841178  18083.387147  18795.109629   -739.436669
PE21  11738.029918  20084.907167  18289.920985   -575.773368
PE24  10023.703972 -13754.129370 -24237.927404   -562.810765
PE25 -11357.488851 -20089.347803 -18544.846046      0.003741
PE26    320.586693  18074.207488 -23426.268653    350.185114
PE27  -9566.914879  13947.738443  24287.028386   -258.712278
PE30 -25105.239960   -604.173982  15667.734592   -854.965055
PE31  24959.903445    323.701049 -15901.795787    -14.582146
PE33  17796.756825   5876.056874 -22901.333296      6.568308
PE34 -18242.902755  -5392.957914  22681.718547    -91.075849
PE36    442.331774 -18237.925565  23321.973142   -177.038592
PG02 -12082.422958  20096.884818 -11737.272322   -495.268481
PG03    -25.860108  15910.396635 -21431.811744    151.359095
PG04  -1873.204084  26107.831319  -4041.476913    275.639818
PG05  12421.605003 -10299.215781  20940.814996   -159.373247
PG06  22133.584123  -3303.559873 -14314.042485    431.293295
PG07   8702.546995  13039.002069  21923.944368    -46.508416
PG08  -6421.125080  22392.652652  12260.064746   -163.924690
PG09   7805.060730  24089.962881   7832.704476     71.012516
PG10 -24374.482567 -10888.190815  -1323.564604    -70.796110
PG11  23697.250861 -11297.693321  -3833.623143   -553.496478
PG12   1553.453022 -16196.974412 -21291.334963   -471.646320
PG13  13059.305430 -14676.325106  17566.181415    619.496152
PG14  22915.704276  13495.776433   1921.194296    308.743086
PG15   3775.000974 -23136.479743  11793.450142    121.083275
PG16 -18814.257610   3542.283176  18271.382205   -376.378164
PG17  12449.963894  14420.218384 -18015.986810    718.880623
PG18  -9263.475715 -11760.501061  21959.596287   -541.023358
PG19  14741.782435   4926.484471 -21764.582631    431.757698
PG20  22903.528235  -3068.506317  13004.667451    389.935978
PG21 -15482.945394  19376.951024  -7509.706298    137.157181
PG22  23753.540508   9915.007048  -5463.689489     41.877433
PG23 -18541.866977 -16088.030634  10399.746746    142.883855
PG24  12276.892517 -20732.416841 -11107.287794   -420.708839
PG25 -10856.018903 -18141.458047 -16576.731477    486.534814
PG26 -24655.368455  -1733.679528  10050.691935    196.731244
PG28 -20953.142761   1138.898886 -16300.665786   -110.294804
PG29  -4565.182589 -25166.726124   6913.408811   -608.134476
PG30  17970.820401   4950.255691  19140.092314   -440.787563
PG31 -24034.901715   8055.596276  -8802.479586   -227.502685
PG32 -14484.073845 -10528.377987 -19487.510320   -607.732611
PJ02 -28049.621035  20688.839529  28831.500096     -1.451900
PJ03 -33963.692989  25123.199088   4822.932767     -0.197566
PJ04 -18331.120794  26702.080728 -21916.551350     78.093963
PR01  12656.337976  22076.432766   1849.431549     75.499701
PR02  14561.018144  11235.989877  17687.134480    -22.439843
PR03   8897.110243  -6450.709349  23070.659362     93.312496
PR04  -1513.385475 -19992.482993  15811.765602    220.679771
PR05 -11015.723708 -23023.570898     17.622814    125.901070
PR07  -8459.234224   7180.327748 -22922.384482     74.390483
PR08   1785.352295  20115.865292 -15497.980780    -74.164227
PR09 -24763.914619  -3287.723884  -4937.742738    166.458213
PR11  -8217.017915  10032.681987  21967.319934     36.417112
PR12  12901.146766  10153.218158  19532.954477     36.029157
PR13  24005.187078   4626.716681   7248.344285    -43.692285
PR14  22015.755066  -4715.035884 -12000.721800     25.973668
PR15   6742.064048 -10362.085009 -22300.909747     82.754472
PR16 -12670.163693 -10006.468387 -19735.505413     22.750288
PR17  16685.844770 -16240.768212 -10362.906350     55.716306
PR18  11735.455285 -21833.385623   6160.265602    124.077071
PR19   2378.577517 -17233.698732  18660.491699   -263.434687
PR20 -12291.309650   -124.665003  22356.610631   -107.335446
PR21 -16783.358624  16381.855766  10061.754206    -71.896248
PR22 -11686.068821  21525.610659  -7065.126030    104.972830
PR24  12962.043375   -719.729398 -21933.704102    -41.367574
PR25 -17479.223593  15532.574481  10221.974179     62.159612
PR26   1339.832641  19662.520760 -16184.084772   -201.590053
EOF
